NORAD_CAT_ID,OBJECT_NAME,OBJECT_TYPE,EPOCH,MEAN_MOTION,ECCENTRICITY,INCLINATION,RA_OF_ASC_NODE,ARG_OF_PERICENTER,MEAN_ANOMALY,BSTAR,MEAN_MOTION_DOT,MEAN_MOTION_DDOT,TLE_LINE0,TLE_LINE1,TLE_LINE2,SEMIMAJOR_AXIS,PERIOD,APOGEE,PERIGEE,DECAYED
52865.0,STARLINK-4274,PAYLOAD,2023-07-15 16:32:25,15.08833398,8.65e-05,53.2177,49.6428,90.0411,270.068,-4.1647e-06,-3.54e-06,0.0,0 STARLINK-4274,1 52865U 22062AM  23196.68918479 -.00000354  00000-0 -41647-5 0  9992,2 52865  53.2177  49.6428 0000865  90.0411 270.0680 15.08833398 60287,6917.901,95.438,540.364,539.167,0.0
52865.0,STARLINK-4274,PAYLOAD,2023-07-16 02:04:43,15.08843545,9.21e-05,53.2178,47.8587,96.8999,263.2098,8.2507e-05,1.026e-05,0.0,0 STARLINK-4274,1 52865U 22062AM  23197.08661671  .00001026  00000-0  82507-4 0  9990,2 52865  53.2178  47.8587 0000921  96.8999 263.2098 15.08843545 60341,6917.87,95.437,540.372,539.097,0.0
52865.0,STARLINK-4274,PAYLOAD,2023-07-16 06:50:53,15.08837683,8.7e-05,53.2177,46.9655,90.8694,269.2398,2.9645e-05,1.84e-06,0.0,0 STARLINK-4274,1 52865U 22062AM  23197.28534225  .00000184  00000-0  29645-4 0  9994,2 52865  53.2177  46.9655 0000870  90.8694 269.2398 15.08837683 60373,6917.887,95.438,540.354,539.151,0.0
52865.0,STARLINK-4274,PAYLOAD,2023-07-16 16:23:12,15.0883237,0.0001017,53.2179,45.182,101.151,258.9597,-2.5207e-05,-6.89e-06,0.0,0 STARLINK-4274,1 52865U 22062AM  23197.68278863 -.00000689  00000-0 -25207-4 0  9993,2 52865  53.2179  45.1820 0001017 101.1510 258.9597 15.08832370 60438,6917.904,95.438,540.472,539.065,0.0
52865.0,STARLINK-4274,PAYLOAD,2023-07-17 00:20:08,15.08842005,0.0001008,53.2184,43.6972,98.945,261.1656,-5.1522e-06,-3.7e-06,0.0,0 STARLINK-4274,1 52865U 22062AM  23198.01398297 -.00000370  00000-0 -51522-5 0  9992,2 52865  53.2184  43.6972 0001008  98.9450 261.1656 15.08842005 60484,6917.874,95.437,540.437,539.042,0.0
52865.0,STARLINK-4274,PAYLOAD,2023-07-17 21:00:08,15.08853434,9.12e-05,53.2181,39.8308,97.4349,262.6747,0.00022886,3.358e-05,0.0,0 STARLINK-4274,1 52865U 22062AM  23198.87509274  .00003358  00000-0  22886-3 0  9991,2 52865  53.2181  39.8308 0000912  97.4349 262.6747 15.08853434 60615,6917.839,95.437,540.335,539.073,0.0
52865.0,STARLINK-4274,PAYLOAD,2023-07-18 22:26:19,15.08839468,9.71e-05,53.2176,35.0727,81.0918,279.0184,8.3445e-05,1.041e-05,0.0,0 STARLINK-4274,1 52865U 22062AM  23199.93494545  .00001041  00000-0  83445-4 0  9999,2 52865  53.2176  35.0727 0000971  81.0918 279.0184 15.08839468 60773,6917.882,95.438,540.419,539.075,0.0
52865.0,STARLINK-4274,PAYLOAD,2023-07-20 15:46:21,15.0884411,9.51e-05,53.2176,27.3422,83.9523,276.1578,0.0002128,3.101e-05,0.0,0 STARLINK-4274,1 52865U 22062AM  23201.65718831  .00003101  00000-0  21280-3 0  9996,2 52865  53.2176  27.3422 0000951  83.9523 276.1578 15.08844110 61035,6917.868,95.437,540.391,539.075,0.0
52865.0,STARLINK-4274,PAYLOAD,2023-07-24 13:34:06,15.08841289,9.84e-05,53.2187,9.797,107.1303,252.9797,0.00011467,1.538e-05,0.0,0 STARLINK-4274,1 52865U 22062AM  23205.56534903  .00001538  00000-0  11467-3 0  9994,2 52865  53.2187   9.7970 0000984 107.1303 252.9797 15.08841289 61130,6917.876,95.437,540.422,539.061,0.0
52865.0,STARLINK-4274,PAYLOAD,2023-07-25 13:24:53,15.08837295,8.96e-05,53.2187,5.3371,108.5711,251.5379,7.5971e-05,9.21e-06,0.0,0 STARLINK-4274,1 52865U 22062AM  23206.55895306  .00000921  00000-0  75971-4 0  9997,2 52865  53.2187   5.3371 0000896 108.5711 251.5379 15.08837295 61286,6917.889,95.438,540.373,539.134,0.0
52865.0,STARLINK-4274,PAYLOAD,2023-07-26 13:15:40,15.08848153,0.0001181,53.2177,0.878,102.8286,257.2838,0.00022203,3.248e-05,0.0,0 STARLINK-4274,1 52865U 22062AM  23207.55254948  .00003248  00000-0  22203-3 0  9993,2 52865  53.2177   0.8780 0001181 102.8286 257.2838 15.08848153 61436,6917.855,95.437,540.537,538.903,0.0
52865.0,STARLINK-4274,PAYLOAD,2023-07-26 19:37:12,15.08857414,0.0001423,53.2191,359.6901,99.6785,260.4368,0.00039185,5.957e-05,0.0,0 STARLINK-4274,1 52865U 22062AM  23207.81750663  .00005957  00000-0  39185-3 0  9993,2 52865  53.2191 359.6901 0001423  99.6785 260.4368 15.08857414 61476,6917.827,95.436,540.677,538.708,0.0
52865.0,STARLINK-4274,PAYLOAD,2023-07-27 03:34:08,15.08836971,0.0002248,53.2178,358.2053,74.1528,285.9712,0.00012001,1.622e-05,0.0,0 STARLINK-4274,1 52865U 22062AM  23208.14871440  .00001622  00000-0  12001-3 0  9990,2 52865  53.2178 358.2053 0002248  74.1528 285.9712 15.08836971 62014,6917.89,95.438,541.31,538.2,0.0
52865.0,STARLINK-4274,PAYLOAD,2023-07-27 16:17:13,15.08842076,0.0001388,53.2173,355.8229,69.3772,290.7369,0.00013739,1.899e-05,0.0,0 STARLINK-4274,1 52865U 22062AM  23208.67863317  .00001899  00000-0  13739-3 0  9997,2 52865  53.2173 355.8229 0001388  69.3772 290.7369 15.08842076 61607,6917.874,95.437,540.699,538.779,0.0
52865.0,STARLINK-4274,PAYLOAD,2023-07-28 09:46:28,15.08838616,0.0001178,53.2173,352.5491,76.9476,283.1647,2.6263e-05,1.3e-06,0.0,0 STARLINK-4274,1 52865U 22062AM  23209.40727582  .00000130  00000-0  26263-4 0  9996,2 52865  53.2173 352.5491 0001178  76.9476 283.1647 15.08838616 62201,6917.885,95.438,540.565,538.935,0.0
52865.0,STARLINK-4274,PAYLOAD,2023-07-29 15:58:48,15.08845805,0.0001142,53.2155,346.8996,70.267,289.8445,0.00028872,4.311e-05,0.0,0 STARLINK-4274,1 52865U 22062AM  23210.66583582  .00004311  00000-0  28872-3 0  9998,2 52865  53.2155 346.8996 0001142  70.2670 289.8445 15.08845805 62398,6917.863,95.437,540.518,538.938,0.0
52865.0,STARLINK-4274,PAYLOAD,2023-07-30 09:28:02,15.08838864,0.0001074,53.2167,343.6285,80.7678,279.3435,6.2559e-05,7.08e-06,0.0,0 STARLINK-4274,1 52865U 22062AM  23211.39447747  .00000708  00000-0  62559-4 0  9998,2 52865  53.2167 343.6285 0001074  80.7678 279.3435 15.08838864 62508,6917.884,95.438,540.492,539.006,0.0
52865.0,STARLINK-4274,PAYLOAD,2023-07-30 17:24:58,15.08850165,0.000107,53.2173,342.1422,83.9931,276.1184,0.00023678,3.484e-05,0.0,0 STARLINK-4274,1 52865U 22062AM  23211.72567264  .00003484  00000-0  23678-3 0  9994,2 52865  53.2173 342.1422 0001070  83.9931 276.1184 15.08850165 62554,6917.849,95.437,540.455,538.974,0.0
52865.0,STARLINK-4274,PAYLOAD,2023-07-31 09:18:49,15.08841589,0.000101,53.2181,339.1692,87.6003,272.5105,6.4301e-05,7.36e-06,0.0,0 STARLINK-4274,1 52865U 22062AM  23212.38807479  .00000736  00000-0  64301-4 0  9998,2 52865  53.2181 339.1692 0001010  87.6003 272.5105 15.08841589 62657,6917.876,95.437,540.439,539.042,0.0
52865.0,STARLINK-4274,PAYLOAD,2023-07-31 17:15:44,15.08851185,0.0001031,53.219,337.6841,97.2608,262.8501,0.000208,3.025e-05,0.0,0 STARLINK-4274,1 52865U 22062AM  23212.71927049  .00003025  00000-0  20800-3 0  9990,2 52865  53.2190 337.6841 0001031  97.2608 262.8501 15.08851185 62708,6917.846,95.437,540.424,538.998,0.0
52865.0,STARLINK-4274,PAYLOAD,2023-08-01 18:41:55,15.08849032,9.36e-05,53.2183,332.9255,83.2461,276.8638,0.00022445,3.287e-05,0.0,0 STARLINK-4274,1 52865U 22062AM  23213.77911119  .00003287  00000-0  22445-3 0  9995,2 52865  53.2183 332.9255 0000936  83.2461 276.8638 15.08849032 62863,6917.853,95.437,540.365,539.07,0.0
52865.0,STARLINK-4274,PAYLOAD,2023-08-02 16:57:19,15.08849033,9.48e-05,53.2175,328.7629,85.4711,274.639,0.00024846,3.67e-05,0.0,0 STARLINK-4274,1 52865U 22062AM  23214.70647279  .00003670  00000-0  24846-3 0  9995,2 52865  53.2175 328.7629 0000948  85.4711 274.6390 15.08849033 63006,6917.853,95.437,540.374,539.062,0.0
52865.0,STARLINK-4274,PAYLOAD,2023-08-03 13:37:20,15.08840872,0.0001035,53.2171,324.8966,75.7462,284.3645,9.3566e-05,1.202e-05,0.0,0 STARLINK-4274,1 52865U 22062AM  23215.56759411  .00001202  00000-0  93566-4 0  9997,2 52865  53.2171 324.8966 0001035  75.7462 284.3645 15.08840872 63133,6917.878,95.437,540.459,539.027,0.0
52865.0,STARLINK-4274,PAYLOAD,2023-08-04 07:06:35,15.0883828,0.000113,53.2178,321.6286,85.0972,275.0149,0.00011906,1.607e-05,0.0,0 STARLINK-4274,1 52865U 22062AM  23216.29623992  .00001607  00000-0  11906-3 0  9998,2 52865  53.2178 321.6286 0001130  85.0972 275.0149 15.08838280 63244,6917.886,95.438,540.532,538.969,0.0
52865.0,STARLINK-4274,PAYLOAD,2023-08-05 10:08:07,15.08850765,0.0001134,53.2157,316.5755,57.3071,302.803,0.00014841,2.076e-05,0.0,0 STARLINK-4274,1 52865U 22062AM  23217.42231471  .00002076  00000-0  14841-3 0  9993,2 52865  53.2157 316.5755 0001134  57.3071 302.8030 15.08850765 63410,6917.847,95.437,540.497,538.928,0.0
52865.0,STARLINK-4274,PAYLOAD,2023-08-05 16:29:39,15.08866667,0.0001089,53.2171,315.3823,74.783,285.3283,0.00057007,8.803e-05,0.0,0 STARLINK-4274,1 52865U 22062AM  23217.68726803  .00008803  00000-0  57007-3 0  9994,2 52865  53.2171 315.3823 0001089  74.7830 285.3283 15.08866667 63451,6917.799,95.436,540.417,538.911,0.0
52865.0,STARLINK-4274,PAYLOAD,2023-08-06 09:58:56,15.08823771,0.0001008,53.2175,312.1088,105.9262,254.1841,-0.00020169,-3.495e-05,0.0,0 STARLINK-4274,1 52865U 22062AM  23218.41592755 -.00003495  00000-0 -20169-3 0  9996,2 52865  53.2175 312.1088 0001008 105.9262 254.1841 15.08823771 63565,6917.93,95.439,540.492,539.098,0.0
52865.0,STARLINK-4274,PAYLOAD,2023-08-07 09:49:43,15.08833518,9.01e-05,53.2166,307.6493,93.7539,266.3556,6.541e-05,7.53e-06,0.0,0 STARLINK-4274,1 52865U 22062AM  23219.40953394  .00000753  00000-0  65410-4 0  9997,2 52865  53.2166 307.6493 0000901  93.7539 266.3556 15.08833518 63711,6917.9,95.438,540.389,539.142,0.0
52865.0,STARLINK-4274,PAYLOAD,2023-08-07 22:32:48,15.08845411,9.11e-05,53.2166,305.2711,100.5153,259.5942,0.00062642,9.697e-05,0.0,0 STARLINK-4274,1 52865U 22062AM  23219.93945539  .00009697  00000-0  62642-3 0  9996,2 52865  53.2166 305.2711 0000911 100.5153 259.5942 15.08845411 63794,6917.864,95.437,540.359,539.099,0.0
52865.0,STARLINK-4274,PAYLOAD,2023-08-08 16:02:02,15.08871486,9.05e-05,53.2165,302.0002,93.9684,266.1412,0.00089057,0.00013926,0.0,0 STARLINK-4274,1 52865U 22062AM  23220.66808541  .00013926  00000-0  89057-3 0  9998,2 52865  53.2165 302.0002 0000905  93.9684 266.1412 15.08871486 63908,6917.784,95.436,540.275,539.023,0.0
